CCSDS_OMM_VERS = 2.0
CREATION_DATE  = 
ORIGINATOR     = 

OBJECT_NAME    = CORAL
OBJECT_ID      = 1998-067YA
CENTER_NAME    = EARTH
REF_FRAME      = TEME
TIME_SYSTEM    = UTC
MEAN_ELEMENT_THEORY = SGP/SGP4

EPOCH          = 2026-03-19T03:31:04.283040
MEAN_MOTION    = 15.55842694
ECCENTRICITY   = .00119576
INCLINATION    = 51.6314
RA_OF_ASC_NODE = 24.3079
ARG_OF_PERICENTER = 208.6793
MEAN_ANOMALY   = 151.3542

EPHEMERIS_TYPE = 0
CLASSIFICATION_TYPE = U
NORAD_CAT_ID   = 67684
ELEMENT_SET_NO = 999
REV_AT_EPOCH   = 626
BSTAR          = .10534644E-2
MEAN_MOTION_DOT = .74693E-3
MEAN_MOTION_DDOT = 0

CCSDS_OMM_VERS = 2.0
CREATION_DATE  = 
ORIGINATOR     = 

OBJECT_NAME    = GXIBA-1
OBJECT_ID      = 1998-067YB
CENTER_NAME    = EARTH
REF_FRAME      = TEME
TIME_SYSTEM    = UTC
MEAN_ELEMENT_THEORY = SGP/SGP4

EPOCH          = 2026-03-19T05:58:30.173376
MEAN_MOTION    = 15.53040945
ECCENTRICITY   = .00116417
INCLINATION    = 51.6333
RA_OF_ASC_NODE = 24.2413
ARG_OF_PERICENTER = 216.8084
MEAN_ANOMALY   = 143.2108

EPHEMERIS_TYPE = 0
CLASSIFICATION_TYPE = U
NORAD_CAT_ID   = 67685
ELEMENT_SET_NO = 999
REV_AT_EPOCH   = 627
BSTAR          = .54134094E-3
MEAN_MOTION_DOT = .34209E-3
MEAN_MOTION_DDOT = 0

CCSDS_OMM_VERS = 2.0
CREATION_DATE  = 
ORIGINATOR     = 

OBJECT_NAME    = UITMSAT-2
OBJECT_ID      = 1998-067YC
CENTER_NAME    = EARTH
REF_FRAME      = TEME
TIME_SYSTEM    = UTC
MEAN_ELEMENT_THEORY = SGP/SGP4

EPOCH          = 2026-03-19T05:44:53.683008
MEAN_MOTION    = 15.53769477
ECCENTRICITY   = .00085854
INCLINATION    = 51.6332
RA_OF_ASC_NODE = 24.1811
ARG_OF_PERICENTER = 186.3081
MEAN_ANOMALY   = 173.7802

EPHEMERIS_TYPE = 0
CLASSIFICATION_TYPE = U
NORAD_CAT_ID   = 67686
ELEMENT_SET_NO = 999
REV_AT_EPOCH   = 627
BSTAR          = .63593876E-3
MEAN_MOTION_DOT = .41344E-3
MEAN_MOTION_DDOT = 0

CCSDS_OMM_VERS = 2.0
CREATION_DATE  = 
ORIGINATOR     = 

OBJECT_NAME    = HMU-SAT2
OBJECT_ID      = 1998-067YD
CENTER_NAME    = EARTH
REF_FRAME      = TEME
TIME_SYSTEM    = UTC
MEAN_ELEMENT_THEORY = SGP/SGP4

EPOCH          = 2026-03-19T06:03:24.388704
MEAN_MOTION    = 15.52803376
ECCENTRICITY   = .00082548
INCLINATION    = 51.6326
RA_OF_ASC_NODE = 24.2659
ARG_OF_PERICENTER = 189.6062
MEAN_ANOMALY   = 170.4771

EPHEMERIS_TYPE = 0
CLASSIFICATION_TYPE = U
NORAD_CAT_ID   = 67687
ELEMENT_SET_NO = 999
REV_AT_EPOCH   = 619
BSTAR          = .4955484E-3
MEAN_MOTION_DOT = .30949E-3
MEAN_MOTION_DDOT = 0

CCSDS_OMM_VERS = 2.0
CREATION_DATE  = 
ORIGINATOR     = 

OBJECT_NAME    = LEOPARD
OBJECT_ID      = 1998-067YE
CENTER_NAME    = EARTH
REF_FRAME      = TEME
TIME_SYSTEM    = UTC
MEAN_ELEMENT_THEORY = SGP/SGP4

EPOCH          = 2026-03-19T01:13:11.552160
MEAN_MOTION    = 15.53420490
ECCENTRICITY   = .00083113
INCLINATION    = 51.6328
RA_OF_ASC_NODE = 25.1689
ARG_OF_PERICENTER = 186.0451
MEAN_ANOMALY   = 174.0441

EPHEMERIS_TYPE = 0
CLASSIFICATION_TYPE = U
NORAD_CAT_ID   = 67688
ELEMENT_SET_NO = 999
REV_AT_EPOCH   = 616
BSTAR          = .63855023E-3
MEAN_MOTION_DOT = .40983E-3
MEAN_MOTION_DDOT = 0

CCSDS_OMM_VERS = 2.0
CREATION_DATE  = 
ORIGINATOR     = 

OBJECT_NAME    = CREW DRAGON 12
OBJECT_ID      = 2026-031A
CENTER_NAME    = EARTH
REF_FRAME      = TEME
TIME_SYSTEM    = UTC
MEAN_ELEMENT_THEORY = SGP/SGP4

EPOCH          = 2026-03-19T03:06:36.144000
MEAN_MOTION    = 15.48370465
ECCENTRICITY   = .0006229
INCLINATION    = 51.6344
RA_OF_ASC_NODE = 25.6919
ARG_OF_PERICENTER = 207.4819
MEAN_ANOMALY   = 152.5840

EPHEMERIS_TYPE = 0
CLASSIFICATION_TYPE = U
NORAD_CAT_ID   = 67796
ELEMENT_SET_NO = 999
REV_AT_EPOCH   = 55771
BSTAR          = .17697854E-3
MEAN_MOTION_DOT = .9105E-4
MEAN_MOTION_DDOT = 0

