GXIBA-1                 
1 67684U 98067YA  26078.14657735  .00074693  00000+0  10535-2 0  9996
2 67684  51.6314  24.3079 0011957 208.6793 151.3542 15.55842694  6260
CORAL                   
1 67685U 98067YB  26078.24896034  .00034209  00000+0  54134-3 0  9998
2 67685  51.6333  24.2413 0011641 216.8084 143.2108 15.53040945  6273
ISS OBJECT YC           
1 67686U 98067YC  26078.23951022  .00041344  00000+0  63594-3 0  9995
2 67686  51.6332  24.1811 0008585 186.3081 173.7802 15.53769477  6272
LEOPARD                 
1 67687U 98067YD  26078.25236561  .00030949  00000+0  49555-3 0  9992
2 67687  51.6326  24.2659 0008254 189.6062 170.4771 15.52803376  6191
ISS OBJECT YE           
1 67688U 98067YE  26078.05082815  .00040983  00000+0  63855-3 0  9990
2 67688  51.6328  25.1689 0008311 186.0451 174.0441 15.53420490  6168
CREW DRAGON 12          
1 67796U 26031A   26078.12958500  .00009105  00000+0  17698-3 0  9998
2 67796  51.6344  25.6919 0006229 207.4819 152.5840 15.48370465557715
